HAWK-A                  
1 43765U 18099H   26198.07570926  .00003796  00000+0  15258-3 0  9992
2 43765  97.3893 249.9255 0034934 177.4083 182.7343 15.24979113417658
HAWK-B                  
1 43794U 18099AN  26198.13315956  .00003241  00000+0  13853-3 0  9995
2 43794  97.3942 249.3342 0031577 195.2137 164.8153 15.23128342417596
HAWK-C                  
1 43799U 18099AT  26198.31131583  .00004575  00000+0  16371-3 0  9991
2 43799  97.3870 251.2204 0040521 176.3586 183.7957 15.28510433418513
HAWK-2C                 
1 47502U 21006CT  26198.20747129  .00003491  00000+0  10502-3 0  9992
2 47502  97.2261 241.9227 0008676  95.1950 265.0284 15.35003779304105
HAWK-2A                 
1 47505U 21006CW  26198.20966682  .00004178  00000+0  12515-3 0  9991
2 47505  97.2301 242.6200 0008225  98.5451 261.6725 15.35025818304105
HAWK-2B                 
1 47508U 21006CZ  26198.07265874  .00004278  00000+0  12755-3 0  9991
2 47508  97.2173 240.7705 0008763  97.1141 263.1099 15.35152493304080
HAWK-3B                 
1 48931U 21059BE  26197.50073101  .00030374  00000+0  23387-3 0  9996
2 48931  97.6631  37.0342 0004634 193.4440 166.6700 15.71948524282453
HAWK-3C                 
1 48948U 21059BX  26198.00966956  .00029575  00000+0  22742-3 0  9994
2 48948  97.6748  43.3297 0004953 192.2303 167.8840 15.71982005282537
HAWK-3A                 
1 48957U 21059CG  26197.56395893  .00029863  00000+0  22989-3 0  9993
2 48957  97.6691  40.0209 0004819 195.8610 164.2502 15.71953796282465
HAWK-5C                 
1 52754U 22057Y   26197.96239029  .00010205  00000+0  16914-3 0  9995
2 52754  97.6621 359.5768 0002635 338.6084  21.5057 15.52364438230968
HAWK-5B                 
1 52756U 22057AA  26198.15558976  .00010690  00000+0  17708-3 0  9994
2 52756  97.6636 358.1368 0003308 323.0148  37.0875 15.52365681230998
HAWK-5A                 
1 52757U 22057AB  26197.96201105  .00010385  00000+0  17210-3 0  9991
2 52757  97.6630 358.7605 0003195 330.0631  30.0438 15.52363268230966
HAWK-6B                 
1 55324U 23011A   26198.28002701  .00002529  00000+0  11292-3 0  9997
2 55324  40.4975 176.5147 0004408 251.1404 108.8927 15.23165450192430
HAWK-6C                 
1 55326U 23011C   26198.21382862  .00002221  00000+0  10018-3 0  9995
2 55326  40.4965 173.7366 0004920 244.6978 115.3322 15.23165002192430
HAWK-6A                 
1 55327U 23011D   26198.27943241  .00002344  00000+0  10527-3 0  9997
2 55327  40.4975 174.9807 0004528 242.0934 117.9417 15.23165302192440
HAWK-7A                 
1 56191U 23054P   26198.11313913  .00002943  00000+0  11158-3 0  9990
2 56191  97.2658  84.6895 0001232 321.9127  38.2026 15.27644350181596
